
# Worst residual: 42.39 km
# MJD 58698.000000 (2019 Aug  3  0:00)
2019-040A = NORAD 44432 = Spektr-RG
1 44432U 19040A   19215.49919926  .00000000  00000-0  00000-0 2  5783
2 44432 076.1139 126.8346 9718218 009.3687 102.8059 00.01439299    07

# Worst residual: 42.76 km
# MJD 58699.000000 (2019 Aug  4  0:00)
2019-040A = NORAD 44432 = Spektr-RG
1 44432U 19040A   19216.49919926  .00000000  00000-0  00000-0 2  5784
2 44432 074.6888 126.7188 9699346 009.7764 105.3494 00.01416910    00

# Worst residual: 44.38 km
# MJD 58700.000000 (2019 Aug  5  0:00)
2019-040A = NORAD 44432 = Spektr-RG
1 44432U 19040A   19217.49919926  .00000000  00000-0  00000-0 2  5785
2 44432 072.9755 126.5647 9681603 010.1759 107.8656 00.01396298    02

# Worst residual: 43.91 km
# MJD 58701.000000 (2019 Aug  6  0:00)
2019-040A = NORAD 44432 = Spektr-RG
1 44432U 19040A   19218.49919926  .00000000  00000-0  00000-0 2  6169
2 44432 071.0272 126.3717 9665557 010.5355 110.7604 00.01379791    03

# Worst residual: 42.64 km
# MJD 58702.000000 (2019 Aug  7  0:00)
2019-040A = NORAD 44432 = Spektr-RG
1 44432U 19040A   19219.49919926  .00000000  00000-0  00000-0 2  6160
2 44432 069.0607 126.1571 9646067 010.9398 113.4420 00.01363184    09

# Worst residual: 40.85 km
# MJD 58703.000000 (2019 Aug  8  0:00)
2019-040A = NORAD 44432 = Spektr-RG
1 44432U 19040A   19220.49919926  .00000000  00000-0  00000-0 2  6162
2 44432 067.1186 125.9245 9626145 011.3417 116.2070 00.01348305    07

# Worst residual: 38.78 km
# MJD 58704.000000 (2019 Aug  9  0:00)
2019-040A = NORAD 44432 = Spektr-RG
1 44432U 19040A   19221.49919926  .00000000  00000-0  00000-0 2  6163
2 44432 065.2665 125.6818 9605912 011.7385 119.0497 00.01334960    04

# Worst residual: 36.61 km
# MJD 58705.000000 (2019 Aug 10  0:00)
2019-040A = NORAD 44432 = Spektr-RG
1 44432U 19040A   19222.49919926  .00000000  00000-0  00000-0 2  6164
2 44432 063.5485 125.4363 9585534 012.1275 121.9575 00.01322944    06

# Worst residual: 34.50 km
# MJD 58706.000000 (2019 Aug 11  0:00)
2019-040A = NORAD 44432 = Spektr-RG
1 44432U 19040A   19223.49919926  .00000000  00000-0  00000-0 2  6165
2 44432 061.9902 125.1944 9565201 012.5061 124.9124 00.01312059    09

# Worst residual: 32.58 km
# MJD 58707.000000 (2019 Aug 12  0:00)
2019-040A = NORAD 44432 = Spektr-RG
1 44432U 19040A   19224.49919926  .00000000  00000-0  00000-0 2  6166
2 44432 060.6028 124.9615 9545101 012.8724 127.8921 00.01302117    03

# Worst residual: 30.98 km
# MJD 58708.000000 (2019 Aug 13  0:00)
2019-040A = NORAD 44432 = Spektr-RG
1 44432U 19040A   19225.49919926  .00000000  00000-0  00000-0 2  6167
2 44432 059.3862 124.7416 9525404 013.2256 130.8706 00.01292942    09

# Worst residual: 29.75 km
# MJD 58709.000000 (2019 Aug 14  0:00)
2019-040A = NORAD 44432 = Spektr-RG
1 44432U 19040A   19226.49919926  .00000000  00000-0  00000-0 2  6168
2 44432 058.3331 124.5376 9506251 013.5659 133.8185 00.01284375    06

# Worst residual: 28.94 km
# MJD 58710.000000 (2019 Aug 15  0:00)
2019-040A = NORAD 44432 = Spektr-RG
1 44432U 19040A   19227.49919926  .00000000  00000-0  00000-0 2  6169
2 44432 057.4316 124.3513 9487747 013.8946 136.7050 00.01276276    04

# Worst residual: 28.55 km
# MJD 58711.000000 (2019 Aug 16  0:00)
2019-040A = NORAD 44432 = Spektr-RG
1 44432U 19040A   19228.49919926  .00000000  00000-0  00000-0 2  6160
2 44432 056.6671 124.1835 9469947 014.2139 139.5005 00.01268533    03

# Worst residual: 28.62 km
# MJD 58712.000000 (2019 Aug 17  0:00)
2019-040A = NORAD 44432 = Spektr-RG
1 44432U 19040A   19229.49919926  .00000000  00000-0  00000-0 2  6161
2 44432 056.0221 124.0338 9452843 014.5267 142.1788 00.01261056    08

# Worst residual: 27.72 km
# MJD 58713.000000 (2019 Aug 18  0:00)
2019-040A = NORAD 44432 = Spektr-RG
1 44432U 19040A   19230.49919926  .00000000  00000-0  00000-0 2  6163
2 44432 055.4960 123.9053 9435389 014.8363 144.7243 00.01253703    03

# Worst residual: 30.07 km
# MJD 58714.000000 (2019 Aug 19  0:00)
2019-040A = NORAD 44432 = Spektr-RG
1 44432U 19040A   19231.49919926  .00000000  00000-0  00000-0 2  6164
2 44432 055.0030 123.7787 9420327 015.1493 147.0977 00.01246650    06

# Worst residual: 31.45 km
# MJD 58715.000000 (2019 Aug 20  0:00)
2019-040A = NORAD 44432 = Spektr-RG
1 44432U 19040A   19232.49919926  .00000000  00000-0  00000-0 2  6165
2 44432 054.5763 123.6638 9404540 015.4700 149.3045 00.01239621    01

# Worst residual: 32.74 km
# MJD 58716.000000 (2019 Aug 21  0:00)
2019-040A = NORAD 44432 = Spektr-RG
1 44432U 19040A   19233.49919926  .00000000  00000-0  00000-0 2  6166
2 44432 054.1907 123.5554 9387728 015.8029 151.3364 00.01232576    08

# Worst residual: 35.59 km
# MJD 58717.000000 (2019 Aug 22  0:00)
2019-040A = NORAD 44432 = Spektr-RG
1 44432U 19040A   19234.49919926  .00000000  00000-0  00000-0 2  6167
2 44432 053.7333 123.4209 9372457 016.1658 153.1471 00.01225677    00
